[{"OBJECT_NAME":"MATS","OBJECT_ID":"2022-147A","EPOCH":"2026-03-09T23:39:00.807264","MEAN_MOTION":15.0466868,"ECCENTRICITY":0.00129708,"INCLINATION":97.6844,"RA_OF_ASC_NODE":71.061,"ARG_OF_PERICENTER":166.9988,"MEAN_ANOMALY":193.1575,"EPHEMERIS_TYPE":0,"CLASSIFICATION_TYPE":"U","NORAD_CAT_ID":54227,"ELEMENT_SET_NO":999,"REV_AT_EPOCH":18284,"BSTAR":0.00029670702,"MEAN_MOTION_DOT":4.118e-5,"MEAN_MOTION_DDOT":0},{"OBJECT_NAME":"STARLINK-5572","OBJECT_ID":"2023-013AZ","EPOCH":"2026-03-08T16:52:15.342240","MEAN_MOTION":15.0252414,"ECCENTRICITY":0.00012977,"INCLINATION":43.0037,"RA_OF_ASC_NODE":318.457,"ARG_OF_PERICENTER":264.7105,"MEAN_ANOMALY":95.3589,"EPHEMERIS_TYPE":0,"CLASSIFICATION_TYPE":"U","NORAD_CAT_ID":55378,"ELEMENT_SET_NO":999,"REV_AT_EPOCH":17141,"BSTAR":-7.4620962e-5,"MEAN_MOTION_DOT":-1.211e-5,"MEAN_MOTION_DDOT":0}]
